[{"OBJECT_NAME":"YOTSUBA-KULOVER","OBJECT_ID":"1998-067XN","EPOCH":"2026-03-09T04:47:45.659328","MEAN_MOTION":15.80299933,"ECCENTRICITY":0.00056151,"INCLINATION":51.6212,"RA_OF_ASC_NODE":59.8333,"ARG_OF_PERICENTER":64.0479,"MEAN_ANOMALY":296.11,"EPHEMERIS_TYPE":0,"CLASSIFICATION_TYPE":"U","NORAD_CAT_ID":65941,"ELEMENT_SET_NO":999,"REV_AT_EPOCH":2342,"BSTAR":0.0011586137,"MEAN_MOTION_DOT":0.00228614,"MEAN_MOTION_DDOT":0},{"OBJECT_NAME":"STARLINK-36657","OBJECT_ID":"2026-033Q","EPOCH":"2026-03-09T22:29:26.170944","MEAN_MOTION":15.82121331,"ECCENTRICITY":0.00018064,"INCLINATION":42.9975,"RA_OF_ASC_NODE":269.8698,"ARG_OF_PERICENTER":274.2564,"MEAN_ANOMALY":85.8101,"EPHEMERIS_TYPE":0,"CLASSIFICATION_TYPE":"U","NORAD_CAT_ID":67835,"ELEMENT_SET_NO":999,"REV_AT_EPOCH":466,"BSTAR":0.00145823,"MEAN_MOTION_DOT":0.00319701,"MEAN_MOTION_DDOT":0}]
